{"type": "FeatureCollection", "features": [ {"type": "Feature", "properties": {"norad_id": 37089, "name": "COSMOS 2251 DEB", "group": "cosmos-2251-debris", "lat": 31.593032157250132, "lon": 137.49638079871366, "alt_km": 806.6396205055971, "timestamp": "2025-12-22T11:33:20.837498+00:00", "meta": {"OBJECT_NAME": "COSMOS 2251 DEB", "OBJECT_ID": "1993-036BFK", "EPOCH": "2025-12-21T15:34:23.731392", "MEAN_MOTION": 14.53121083, "ECCENTRICITY": 0.0134841, "INCLINATION": 74.0377, "RA_OF_ASC_NODE": 128.9285, "ARG_OF_PERICENTER": 227.2834, "MEAN_ANOMALY": 131.6914, "EPHEMERIS_TYPE": 0, "CLASSIFICATION_TYPE": "U", "NORAD_CAT_ID": 37089, "ELEMENT_SET_NO": 999, "REV_AT_EPOCH": 66239, "BSTAR": 0.0022471, "MEAN_MOTION_DOT": 0.00010467, "MEAN_MOTION_DDOT": 0}, "tle": {"line1": "1 37089U 93036BFK 25355.64888578  .00010467  00000+0  22471-2 0  9997", "line2": "2 37089  74.0377 128.9285 0134841 227.2834 131.6914 14.53121083662390"}}, "geometry": {"type": "Point", "coordinates": [137.49638079871366, 31.593032157250132]}}, {"type": "Feature", "properties": {"norad_id": 37094, "name": "COSMOS 2251 DEB", "group": "cosmos-2251-debris", "lat": -13.702132542856406, "lon": 99.32696697982917, "alt_km": 759.545807749997, "timestamp": "2025-12-22T11:33:20.837508+00:00", "meta": {"OBJECT_NAME": "COSMOS 2251 DEB", "OBJECT_ID": "1993-036BFQ", "EPOCH": "2025-12-10T15:45:11.030688", "MEAN_MOTION": 14.37808892, "ECCENTRICITY": 0.0084108, "INCLINATION": 74.1091, "RA_OF_ASC_NODE": 124.9809, "ARG_OF_PERICENTER": 91.4784, "MEAN_ANOMALY": 269.6007, "EPHEMERIS_TYPE": 0, "CLASSIFICATION_TYPE": "U", "NORAD_CAT_ID": 37094, "ELEMENT_SET_NO": 999, "REV_AT_EPOCH": 84476, "BSTAR": 0.0015212, "MEAN_MOTION_DOT": 4.753e-05, "MEAN_MOTION_DDOT": 0}, "tle": {"line1": "1 37094U 93036BFQ 25344.65637767  .00004753  00000+0  15212-2 0  9990", "line2": "2 37094  74.1091 124.9809 0084108  91.4784 269.6007 14.37808892844763"}}, "geometry": {"type": "Point", "coordinates": [99.32696697982917, -13.702132542856406]}}, {"type": "Feature", "properties": {"norad_id": 37095, "name": "COSMOS 2251 DEB", "group": "cosmos-2251-debris", "lat": 32.08210729917149, "lon": -17.718529943431346, "alt_km": 858.5405422038957, "timestamp": "2025-12-22T11:33:20.837518+00:00", "meta": {"OBJECT_NAME": "COSMOS 2251 DEB", "OBJECT_ID": "1993-036BFR", "EPOCH": "2025-12-20T05:48:30.438144", "MEAN_MOTION": 14.03423265, "ECCENTRICITY": 0.01937256, "INCLINATION": 73.8447, "RA_OF_ASC_NODE": 176.6944, "ARG_OF_PERICENTER": 233.1449, "MEAN_ANOMALY": 125.1788, "EPHEMERIS_TYPE": 0, "CLASSIFICATION_TYPE": "U", "NORAD_CAT_ID": 37095, "ELEMENT_SET_NO": 999, "REV_AT_EPOCH": 62741, "BSTAR": 0.00075143733, "MEAN_MOTION_DOT": 1.362e-05, "MEAN_MOTION_DDOT": 0}, "tle": {"line1": "1 37095U 93036BFR 25354.24201896  .00001362  00000+0  75144-3 0  9991", "line2": "2 37095  73.8447 176.6944 0193725 233.1449 125.1788 14.03423265627411"}}, "geometry": {"type": "Point", "coordinates": [-17.718529943431346, 32.08210729917149]}}, {"type": "Feature", "properties": {"norad_id": 37108, "name": "COSMOS 2251 DEB", "group": "cosmos-2251-debris", "lat": 70.66047651299164, "lon": 117.13288257845232, "alt_km": 711.9918810081263, "timestamp": "2025-12-22T11:33:20.837528+00:00", "meta": {"OBJECT_NAME": "COSMOS 2251 DEB", "OBJECT_ID": "1993-036BGE", "EPOCH": "2025-12-19T14:53:35.707488", "MEAN_MOTION": 14.41350949, "ECCENTRICITY": 0.00906536, "INCLINATION": 74.0446, "RA_OF_ASC_NODE": 67.8256, "ARG_OF_PERICENTER": 142.8208, "MEAN_ANOMALY": 217.9273, "EPHEMERIS_TYPE": 0, "CLASSIFICATION_TYPE": "U", "NORAD_CAT_ID": 37108, "ELEMENT_SET_NO": 999, "REV_AT_EPOCH": 85606, "BSTAR": 0.00071158692, "MEAN_MOTION_DOT": 2.393e-05, "MEAN_MOTION_DDOT": 0}, "tle": {"line1": "1 37108U 93036BGE 25353.62055217  .00002393  00000+0  71159-3 0  9998", "line2": "2 37108  74.0446  67.8256 0090653 142.8208 217.9273 14.41350949856064"}}, "geometry": {"type": "Point", "coordinates": [117.13288257845232, 70.66047651299164]}}, {"type": "Feature", "properties": {"norad_id": 37126, "name": "COSMOS 2251 DEB", "group": "cosmos-2251-debris", "lat": 11.064918778805325, "lon": -21.32496399687837, "alt_km": 733.4117186933718, "timestamp": "2025-12-22T11:33:20.837538+00:00", "meta": {"OBJECT_NAME": "COSMOS 2251 DEB", "OBJECT_ID": "1993-036BGY", "EPOCH": "2025-12-20T05:42:55.988064", "MEAN_MOTION": 14.73095826, "ECCENTRICITY": 0.012286, "INCLINATION": 73.953, "RA_OF_ASC_NODE": 339.8407, "ARG_OF_PERICENTER": 216.3855, "MEAN_ANOMALY": 142.8921, "EPHEMERIS_TYPE": 0, "CLASSIFICATION_TYPE": "U", "NORAD_CAT_ID": 37126, "ELEMENT_SET_NO": 999, "REV_AT_EPOCH": 8209, "BSTAR": 0.00014955, "MEAN_MOTION_DOT": 1.046e-05, "MEAN_MOTION_DDOT": 0}, "tle": {"line1": "1 37126U 93036BGY 25354.23814801  .00001046  00000+0  14955-3 0  9993", "line2": "2 37126  73.9530 339.8407 0122860 216.3855 142.8921 14.73095826 82092"}}, "geometry": {"type": "Point", "coordinates": [-21.32496399687837, 11.064918778805325]}}, {"type": "Feature", "properties": {"norad_id": 37132, "name": "COSMOS 2251 DEB", "group": "cosmos-2251-debris", "lat": -49.786193723948934, "lon": 54.71517662011598, "alt_km": 662.6661015059653, "timestamp": "2025-12-22T11:33:20.837548+00:00", "meta": {"OBJECT_NAME": "COSMOS 2251 DEB", "OBJECT_ID": "1993-036BHE", "EPOCH": "2025-12-21T08:30:46.700352", "MEAN_MOTION": 14.77932958, "ECCENTRICITY": 0.00403307, "INCLINATION": 74.0023, "RA_OF_ASC_NODE": 217.0951, "ARG_OF_PERICENTER": 11.0309, "MEAN_ANOMALY": 349.1741, "EPHEMERIS_TYPE": 0, "CLASSIFICATION_TYPE": "U", "NORAD_CAT_ID": 37132, "ELEMENT_SET_NO": 999, "REV_AT_EPOCH": 62543, "BSTAR": 0.0006420237, "MEAN_MOTION_DOT": 4.657e-05, "MEAN_MOTION_DDOT": 0}, "tle": {"line1": "1 37132U 93036BHE 25355.35470718  .00004657  00000+0  64202-3 0  9990", "line2": "2 37132  74.0023 217.0951 0040330  11.0309 349.1741 14.77932958625437"}}, "geometry": {"type": "Point", "coordinates": [54.71517662011598, -49.786193723948934]}}, {"type": "Feature", "properties": {"norad_id": 37270, "name": "COSMOS 2251 DEB", "group": "cosmos-2251-debris", "lat": -28.71191480410361, "lon": 149.07785022304662, "alt_km": 1180.4511334114923, "timestamp": "2025-12-22T11:33:20.837558+00:00", "meta": {"OBJECT_NAME": "COSMOS 2251 DEB", "OBJECT_ID": "1993-036BHJ", "EPOCH": "2025-12-12T22:45:06.098400", "MEAN_MOTION": 13.59808663, "ECCENTRICITY": 0.03985351, "INCLINATION": 73.9378, "RA_OF_ASC_NODE": 335.5481, "ARG_OF_PERICENTER": 347.3958, "MEAN_ANOMALY": 11.7404, "EPHEMERIS_TYPE": 0, "CLASSIFICATION_TYPE": "U", "NORAD_CAT_ID": 37270, "ELEMENT_SET_NO": 999, "REV_AT_EPOCH": 77072, "BSTAR": 0.0064936549, "MEAN_MOTION_DOT": 8.148e-05, "MEAN_MOTION_DDOT": 0}, "tle": {"line1": "1 37270U 93036BHJ 25346.94798725  .00008148  00000+0  64937-2 0  9992", "line2": "2 37270  73.9378 335.5481 0398535 347.3958  11.7404 13.59808663770728"}}, "geometry": {"type": "Point", "coordinates": [149.07785022304662, -28.71191480410361]}}, {"type": "Feature", "properties": {"norad_id": 37278, "name": "COSMOS 2251 DEB", "group": "cosmos-2251-debris", "lat": 14.4091983623445, "lon": -23.98032795496641, "alt_km": 998.0492393311933, "timestamp": "2025-12-22T11:33:20.837568+00:00", "meta": {"OBJECT_NAME": "COSMOS 2251 DEB", "OBJECT_ID": "1993-036BHS", "EPOCH": "2025-12-04T09:26:36.152736", "MEAN_MOTION": 14.15029915, "ECCENTRICITY": 0.029998, "INCLINATION": 73.7864, "RA_OF_ASC_NODE": 4.3592, "ARG_OF_PERICENTER": 188.2556, "MEAN_ANOMALY": 234.4903, "EPHEMERIS_TYPE": 0, "CLASSIFICATION_TYPE": "U", "NORAD_CAT_ID": 37278, "ELEMENT_SET_NO": 999, "REV_AT_EPOCH": 63711, "BSTAR": 0.0023061, "MEAN_MOTION_DOT": 6.884e-05, "MEAN_MOTION_DDOT": 0}, "tle": {"line1": "1 37278U 93036BHS 25338.39347399  .00006884  00000+0  23061-2 0  9995", "line2": "2 37278  73.7864   4.3592 0299980 188.2556 234.4903 14.15029915637119"}}, "geometry": {"type": "Point", "coordinates": [-23.98032795496641, 14.4091983623445]}}, {"type": "Feature", "properties": {"norad_id": 37280, "name": "COSMOS 2251 DEB", "group": "cosmos-2251-debris", "lat": 65.7923360384222, "lon": -179.90498048211316, "alt_km": 769.7843726767678, "timestamp": "2025-12-22T11:33:20.837578+00:00", "meta": {"OBJECT_NAME": "COSMOS 2251 DEB", "OBJECT_ID": "1993-036BHU", "EPOCH": "2025-12-20T20:08:10.131360", "MEAN_MOTION": 14.19354674, "ECCENTRICITY": 0.0130313, "INCLINATION": 74.0316, "RA_OF_ASC_NODE": 42.5901, "ARG_OF_PERICENTER": 169.4803, "MEAN_ANOMALY": 190.9117, "EPHEMERIS_TYPE": 0, "CLASSIFICATION_TYPE": "U", "NORAD_CAT_ID": 37280, "ELEMENT_SET_NO": 999, "REV_AT_EPOCH": 57438, "BSTAR": 0.00071774, "MEAN_MOTION_DOT": 1.617e-05, "MEAN_MOTION_DDOT": 0}, "tle": {"line1": "1 37280U 93036BHU 25354.83900615  .00001617  00000+0  71774-3 0  9995", "line2": "2 37280  74.0316  42.5901 0130313 169.4803 190.9117 14.19354674574385"}}, "geometry": {"type": "Point", "coordinates": [-179.90498048211316, 65.7923360384222]}}, {"type": "Feature", "properties": {"norad_id": 37284, "name": "COSMOS 2251 DEB", "group": "cosmos-2251-debris", "lat": -53.16940637976702, "lon": -18.008201551497997, "alt_km": 785.2027869616068, "timestamp": "2025-12-22T11:33:20.837588+00:00", "meta": {"OBJECT_NAME": "COSMOS 2251 DEB", "OBJECT_ID": "1993-036BHY", "EPOCH": "2025-12-10T18:04:20.469216", "MEAN_MOTION": 14.12686618, "ECCENTRICITY": 0.01605026, "INCLINATION": 74.0123, "RA_OF_ASC_NODE": 160.2425, "ARG_OF_PERICENTER": 312.4867, "MEAN_ANOMALY": 59.8736, "EPHEMERIS_TYPE": 0, "CLASSIFICATION_TYPE": "U", "NORAD_CAT_ID": 37284, "ELEMENT_SET_NO": 999, "REV_AT_EPOCH": 59147, "BSTAR": 0.001592138, "MEAN_MOTION_DOT": 3.31e-05, "MEAN_MOTION_DDOT": 0}, "tle": {"line1": "1 37284U 93036BHY 25344.75301469  .00003310  00000+0  15921-2 0  9994", "line2": "2 37284  74.0123 160.2425 0160502 312.4867  59.8736 14.12686618591475"}}, "geometry": {"type": "Point", "coordinates": [-18.008201551497997, -53.16940637976702]}}]}